{"type": "FeatureCollection", "features": [ {"type": "Feature", "properties": {"norad_id": 32125, "name": "FENGYUN 1C DEB", "group": "fengyun-1c-debris", "lat": 5.859516993115069, "lon": 150.09803586597369, "alt_km": 761.1831787193723, "timestamp": "2025-12-14T14:39:29.655893+00:00", "meta": {"OBJECT_NAME": "FENGYUN 1C DEB", "OBJECT_ID": "1999-025CRT", "EPOCH": "2025-12-13T18:15:13.635936", "MEAN_MOTION": 14.69898719, "ECCENTRICITY": 0.01741181, "INCLINATION": 99.062, "RA_OF_ASC_NODE": 328.2158, "ARG_OF_PERICENTER": 320.0632, "MEAN_ANOMALY": 38.7868, "EPHEMERIS_TYPE": 0, "CLASSIFICATION_TYPE": "U", "NORAD_CAT_ID": 32125, "ELEMENT_SET_NO": 999, "REV_AT_EPOCH": 70538, "BSTAR": 0.0027785785, "MEAN_MOTION_DOT": 0.00020999, "MEAN_MOTION_DDOT": 0}, "tle": {"line1": "1 32125U 99025CRT 25347.76057449  .00020999  00000+0  27786-2 0  9991", "line2": "2 32125  99.0620 328.2158 0174118 320.0632  38.7868 14.69898719705383"}}, "geometry": {"type": "Point", "coordinates": [150.09803586597369, 5.859516993115069]}}, {"type": "Feature", "properties": {"norad_id": 32126, "name": "FENGYUN 1C DEB", "group": "fengyun-1c-debris", "lat": -80.1126079963482, "lon": -22.460891370102594, "alt_km": 852.91647452703, "timestamp": "2025-12-14T14:39:29.655903+00:00", "meta": {"OBJECT_NAME": "FENGYUN 1C DEB", "OBJECT_ID": "1999-025CRU", "EPOCH": "2025-12-08T21:03:50.440032", "MEAN_MOTION": 13.56787693, "ECCENTRICITY": 0.0281203, "INCLINATION": 99.1098, "RA_OF_ASC_NODE": 219.2267, "ARG_OF_PERICENTER": 265.4353, "MEAN_ANOMALY": 91.4619, "EPHEMERIS_TYPE": 0, "CLASSIFICATION_TYPE": "U", "NORAD_CAT_ID": 32126, "ELEMENT_SET_NO": 999, "REV_AT_EPOCH": 61662, "BSTAR": 0.0016621, "MEAN_MOTION_DOT": 1.479e-05, "MEAN_MOTION_DDOT": 0}, "tle": {"line1": "1 32126U 99025CRU 25342.87766713  .00001479  00000+0  16621-2 0  9998", "line2": "2 32126  99.1098 219.2267 0281203 265.4353  91.4619 13.56787693616621"}}, "geometry": {"type": "Point", "coordinates": [-22.460891370102594, -80.1126079963482]}}, {"type": "Feature", "properties": {"norad_id": 32128, "name": "FENGYUN 1C DEB", "group": "fengyun-1c-debris", "lat": 80.091651744006, "lon": -79.62332539879583, "alt_km": 1058.8596607601867, "timestamp": "2025-12-14T14:39:29.655914+00:00", "meta": {"OBJECT_NAME": "FENGYUN 1C DEB", "OBJECT_ID": "1999-025CRW", "EPOCH": "2025-12-13T20:57:10.169568", "MEAN_MOTION": 13.94224992, "ECCENTRICITY": 0.0397196, "INCLINATION": 99.0317, "RA_OF_ASC_NODE": 34.0737, "ARG_OF_PERICENTER": 219.7595, "MEAN_ANOMALY": 137.383, "EPHEMERIS_TYPE": 0, "CLASSIFICATION_TYPE": "U", "NORAD_CAT_ID": 32128, "ELEMENT_SET_NO": 999, "REV_AT_EPOCH": 63001, "BSTAR": 0.00069737877, "MEAN_MOTION_DOT": 1.737e-05, "MEAN_MOTION_DDOT": 0}, "tle": {"line1": "1 32128U 99025CRW 25347.87303437  .00001737  00000+0  69738-3 0  9990", "line2": "2 32128  99.0317  34.0737 0397196 219.7595 137.3830 13.94224992630014"}}, "geometry": {"type": "Point", "coordinates": [-79.62332539879583, 80.091651744006]}}, {"type": "Feature", "properties": {"norad_id": 32129, "name": "FENGYUN 1C DEB", "group": "fengyun-1c-debris", "lat": -40.58477618485974, "lon": -80.77485461507712, "alt_km": 850.5828260184571, "timestamp": "2025-12-14T14:39:29.655924+00:00", "meta": {"OBJECT_NAME": "FENGYUN 1C DEB", "OBJECT_ID": "1999-025CRX", "EPOCH": "2025-12-12T14:37:33.784320", "MEAN_MOTION": 14.28494713, "ECCENTRICITY": 0.00677546, "INCLINATION": 99.0606, "RA_OF_ASC_NODE": 105.0048, "ARG_OF_PERICENTER": 34.3937, "MEAN_ANOMALY": 340.496, "EPHEMERIS_TYPE": 0, "CLASSIFICATION_TYPE": "U", "NORAD_CAT_ID": 32129, "ELEMENT_SET_NO": 999, "REV_AT_EPOCH": 94225, "BSTAR": 0.003224381, "MEAN_MOTION_DOT": 8.24e-05, "MEAN_MOTION_DDOT": 0}, "tle": {"line1": "1 32129U 99025CRX 25346.60941880  .00008240  00000+0  32244-2 0  9998", "line2": "2 32129  99.0606 105.0048 0067754  34.3937 340.4960 14.28494713942256"}}, "geometry": {"type": "Point", "coordinates": [-80.77485461507712, -40.58477618485974]}}, {"type": "Feature", "properties": {"norad_id": 32130, "name": "FENGYUN 1C DEB", "group": "fengyun-1c-debris", "lat": 31.38467135008416, "lon": -19.324548495820327, "alt_km": 823.6455088591583, "timestamp": "2025-12-14T14:39:29.655934+00:00", "meta": {"OBJECT_NAME": "FENGYUN 1C DEB", "OBJECT_ID": "1999-025CRY", "EPOCH": "2025-12-12T06:50:38.827104", "MEAN_MOTION": 14.37545048, "ECCENTRICITY": 0.00825122, "INCLINATION": 98.9038, "RA_OF_ASC_NODE": 152.7804, "ARG_OF_PERICENTER": 331.5241, "MEAN_ANOMALY": 28.1449, "EPHEMERIS_TYPE": 0, "CLASSIFICATION_TYPE": "U", "NORAD_CAT_ID": 32130, "ELEMENT_SET_NO": 999, "REV_AT_EPOCH": 96228, "BSTAR": 0.00063289751, "MEAN_MOTION_DOT": 1.924e-05, "MEAN_MOTION_DDOT": 0}, "tle": {"line1": "1 32130U 99025CRY 25346.28517161  .00001924  00000+0  63290-3 0  9993", "line2": "2 32130  98.9038 152.7804 0082512 331.5241  28.1449 14.37545048962288"}}, "geometry": {"type": "Point", "coordinates": [-19.324548495820327, 31.38467135008416]}}, {"type": "Feature", "properties": {"norad_id": 32133, "name": "FENGYUN 1C DEB", "group": "fengyun-1c-debris", "lat": 30.899991880792903, "lon": -15.368739264937211, "alt_km": 818.6062156610787, "timestamp": "2025-12-14T14:39:29.655949+00:00", "meta": {"OBJECT_NAME": "FENGYUN 1C DEB", "OBJECT_ID": "1999-025CSB", "EPOCH": "2025-12-13T06:20:12.624864", "MEAN_MOTION": 14.18072081, "ECCENTRICITY": 0.00364291, "INCLINATION": 98.4319, "RA_OF_ASC_NODE": 348.4451, "ARG_OF_PERICENTER": 99.3887, "MEAN_ANOMALY": 261.1411, "EPHEMERIS_TYPE": 0, "CLASSIFICATION_TYPE": "U", "NORAD_CAT_ID": 32133, "ELEMENT_SET_NO": 999, "REV_AT_EPOCH": 94982, "BSTAR": 0.00029202222, "MEAN_MOTION_DOT": 5.62e-06, "MEAN_MOTION_DDOT": 0}, "tle": {"line1": "1 32133U 99025CSB 25347.26403501  .00000562  00000+0  29202-3 0  9999", "line2": "2 32133  98.4319 348.4451 0036429  99.3887 261.1411 14.18072081949825"}}, "geometry": {"type": "Point", "coordinates": [-15.368739264937211, 30.899991880792903]}}, {"type": "Feature", "properties": {"norad_id": 32134, "name": "FENGYUN 1C DEB", "group": "fengyun-1c-debris", "lat": -80.84499988660804, "lon": 101.95530220183696, "alt_km": 642.9734333319939, "timestamp": "2025-12-14T14:39:29.655961+00:00", "meta": {"OBJECT_NAME": "FENGYUN 1C DEB", "OBJECT_ID": "1999-025CSC", "EPOCH": "2025-12-12T19:46:13.278720", "MEAN_MOTION": 14.21556709, "ECCENTRICITY": 0.02589769, "INCLINATION": 98.5953, "RA_OF_ASC_NODE": 350.0151, "ARG_OF_PERICENTER": 263.3717, "MEAN_ANOMALY": 223.0495, "EPHEMERIS_TYPE": 0, "CLASSIFICATION_TYPE": "U", "NORAD_CAT_ID": 32134, "ELEMENT_SET_NO": 999, "REV_AT_EPOCH": 95148, "BSTAR": 0.0010048423, "MEAN_MOTION_DOT": 3.046e-05, "MEAN_MOTION_DDOT": 0}, "tle": {"line1": "1 32134U 99025CSC 25346.82376480  .00003046  00000+0  10048-2 0  9993", "line2": "2 32134  98.5953 350.0151 0258976 263.3717 223.0495 14.21556709951487"}}, "geometry": {"type": "Point", "coordinates": [101.95530220183696, -80.84499988660804]}}, {"type": "Feature", "properties": {"norad_id": 32137, "name": "FENGYUN 1C DEB", "group": "fengyun-1c-debris", "lat": 80.9496410121767, "lon": 47.146729306757486, "alt_km": 547.7056716132711, "timestamp": "2025-12-14T14:39:29.655973+00:00", "meta": {"OBJECT_NAME": "FENGYUN 1C DEB", "OBJECT_ID": "1999-025CSF", "EPOCH": "2025-12-12T03:55:05.430720", "MEAN_MOTION": 14.81229537, "ECCENTRICITY": 0.01876242, "INCLINATION": 98.4418, "RA_OF_ASC_NODE": 113.3755, "ARG_OF_PERICENTER": 35.9319, "MEAN_ANOMALY": 325.4341, "EPHEMERIS_TYPE": 0, "CLASSIFICATION_TYPE": "U", "NORAD_CAT_ID": 32137, "ELEMENT_SET_NO": 999, "REV_AT_EPOCH": 66722, "BSTAR": 0.0012143683, "MEAN_MOTION_DOT": 0.00012783, "MEAN_MOTION_DDOT": 0}, "tle": {"line1": "1 32137U 99025CSF 25346.16325730  .00012783  00000+0  12144-2 0  9992", "line2": "2 32137  98.4418 113.3755 0187624  35.9319 325.4341 14.81229537667222"}}, "geometry": {"type": "Point", "coordinates": [47.146729306757486, 80.9496410121767]}}, {"type": "Feature", "properties": {"norad_id": 32141, "name": "FENGYUN 1C DEB", "group": "fengyun-1c-debris", "lat": -80.07787191217481, "lon": 109.32046443974438, "alt_km": 863.8520229098312, "timestamp": "2025-12-14T14:39:29.655983+00:00", "meta": {"OBJECT_NAME": "FENGYUN 1C DEB", "OBJECT_ID": "1999-025CSK", "EPOCH": "2025-11-20T23:04:46.058016", "MEAN_MOTION": 14.03501767, "ECCENTRICITY": 0.00731678, "INCLINATION": 98.7436, "RA_OF_ASC_NODE": 328.1999, "ARG_OF_PERICENTER": 269.2169, "MEAN_ANOMALY": 90.0615, "EPHEMERIS_TYPE": 0, "CLASSIFICATION_TYPE": "U", "NORAD_CAT_ID": 32141, "ELEMENT_SET_NO": 999, "REV_AT_EPOCH": 94638, "BSTAR": 0.00056632309, "MEAN_MOTION_DOT": 8.66e-06, "MEAN_MOTION_DDOT": 0}, "tle": {"line1": "1 32141U 99025CSK 25324.96164419  .00000866  00000+0  56632-3 0  9996", "line2": "2 32141  98.7436 328.1999 0073167 269.2169  90.0615 14.03501767946385"}}, "geometry": {"type": "Point", "coordinates": [109.32046443974438, -80.07787191217481]}}, {"type": "Feature", "properties": {"norad_id": 32143, "name": "FENGYUN 1C DEB", "group": "fengyun-1c-debris", "lat": -35.10128258825055, "lon": -28.411642428445298, "alt_km": 894.3901602016413, "timestamp": "2025-12-14T14:39:29.655993+00:00", "meta": {"OBJECT_NAME": "FENGYUN 1C DEB", "OBJECT_ID": "1999-025CSM", "EPOCH": "2025-12-03T04:28:30.343584", "MEAN_MOTION": 14.17959367, "ECCENTRICITY": 0.01041232, "INCLINATION": 98.5963, "RA_OF_ASC_NODE": 314.4234, "ARG_OF_PERICENTER": 136.0042, "MEAN_ANOMALY": 224.9481, "EPHEMERIS_TYPE": 0, "CLASSIFICATION_TYPE": "U", "NORAD_CAT_ID": 32143, "ELEMENT_SET_NO": 999, "REV_AT_EPOCH": 95798, "BSTAR": 0.00020859227, "MEAN_MOTION_DOT": 4.09e-06, "MEAN_MOTION_DDOT": 0}, "tle": {"line1": "1 32143U 99025CSM 25337.18646231  .00000409  00000+0  20859-3 0  9998", "line2": "2 32143  98.5963 314.4234 0104123 136.0042 224.9481 14.17959367957983"}}, "geometry": {"type": "Point", "coordinates": [-28.411642428445298, -35.10128258825055]}}]}